{
    "links": {
        "self": "http://www.neowsapp.com/rest/v1/neo/3092331?api_key=iIulBulltgU6a56xZRHN4H3l9WmuAYTsLGpBGhQ2"
    },
    "id": "3092331",
    "neo_reference_id": "3092331",
    "name": "(2001 SZ169)",
    "designation": "2001 SZ169",
    "nasa_jpl_url": "http://ssd.jpl.nasa.gov/sbdb.cgi?sstr=3092331",
    "absolute_magnitude_h": 25.1,
    "estimated_diameter": {
        "kilometers": {
            "estimated_diameter_min": 0.0253837029,
            "estimated_diameter_max": 0.0567596853
        },
        "meters": {
            "estimated_diameter_min": 25.3837029364,
            "estimated_diameter_max": 56.7596852866
        },
        "miles": {
            "estimated_diameter_min": 0.0157726969,
            "estimated_diameter_max": 0.0352688224
        },
        "feet": {
            "estimated_diameter_min": 83.279867942,
            "estimated_diameter_max": 186.2194458756
        }
    },
    "is_potentially_hazardous_asteroid": false,
    "close_approach_data": [
        {
            "close_approach_date": "2001-09-19",
            "close_approach_date_full": "2001-Sep-19 01:11",
            "epoch_date_close_approach": 1000861860000,
            "relative_velocity": {
                "kilometers_per_second": "4.6019034889",
                "kilometers_per_hour": "16566.8525600883",
                "miles_per_hour": "10293.9979143504"
            },
            "miss_distance": {
                "astronomical": "0.0320851551",
                "lunar": "12.4811253339",
                "kilometers": "4799870.861579637",
                "miles": "2982501.4529555106"
            },
            "orbiting_body": "Earth"
        },
        {
            "close_approach_date": "2004-11-13",
            "close_approach_date_full": "2004-Nov-13 02:48",
            "epoch_date_close_approach": 1100314080000,
            "relative_velocity": {
                "kilometers_per_second": "17.0215362217",
                "kilometers_per_hour": "61277.5303982881",
                "miles_per_hour": "38075.4743744252"
            },
            "miss_distance": {
                "astronomical": "0.4851260908",
                "lunar": "188.7140493212",
                "kilometers": "72573829.865106596",
                "miles": "45095286.7819431848"
            },
            "orbiting_body": "Earth"
        },
        {
            "close_approach_date": "2153-11-16",
            "close_approach_date_full": "2153-Nov-16 09:26",
            "epoch_date_close_approach": 5802571560000,
            "relative_velocity": {
                "kilometers_per_second": "16.8571072408",
                "kilometers_per_hour": "60685.5860668372",
                "miles_per_hour": "37707.6631869189"
            },
            "miss_distance": {
                "astronomical": "0.479689212",
                "lunar": "186.599103468",
                "kilometers": "71760484.37717844",
                "miles": "44589897.330964872"
            },
            "orbiting_body": "Earth"
        }
    ],
    "orbital_data": {
        "orbit_id": "7",
        "orbit_determination_date": "2017-04-06 09:16:07",
        "first_observation_date": "2001-09-19",
        "last_observation_date": "2001-09-24",
        "data_arc_in_days": 5,
        "observations_used": 21,
        "orbit_uncertainty": "8",
        "minimum_orbit_intersection": ".0263654",
        "jupiter_tisserand_invariant": "4.875",
        "epoch_osculation": "2452173.5",
        "eccentricity": ".2307682835935846",
        "semi_major_axis": "1.336036814863671",
        "inclination": "6.340039950045529",
        "ascending_node_longitude": "178.8513475339611",
        "orbital_period": "564.0609895752243",
        "perihelion_distance": "1.027721892279742",
        "perihelion_argument": "189.4905019089088",
        "aphelion_distance": "1.6443517374476",
        "perihelion_time": "2452182.265742169930",
        "mean_anomaly": "354.4054504043061",
        "mean_motion": ".6382288558389831",
        "equinox": "J2000",
        "orbit_class": {
            "orbit_class_type": "AMO",
            "orbit_class_description": "Near-Earth asteroid orbits similar to that of 1221 Amor",
            "orbit_class_range": "1.017 AU < q (perihelion) < 1.3 AU"
        }
    },
    "is_sentry_object": false
}